OPTICUBE 04             
1 41851U 16067D   18271.21524201  .00000173  00000-0  20418-4 0  9995
2 41851  97.9226   0.6475 0008932 171.9319 188.2047 14.96711682102504
AEROCUBE 8D             
1 41852U 16067E   18270.79538504  .00000723  00000-0  68862-4 0  9995
2 41852  97.9233   0.0565 0009944 174.9267 185.2056 14.96552939102422
AEROCUBE 8C             
1 41853U 16067F   18271.21317213  .00000386  00000-0  39244-4 0  9993
2 41853  97.9237   0.4357 0010102 174.3613 185.7723 14.96521987102488
PROMETHEUS 2-1          
1 41854U 16067G   18270.81028701  .00000710  00000-0  67577-4 0  9991
2 41854  97.9244   0.0639 0010456 175.4178 184.7141 14.96655260102425
PROMETHEUS 2-3          
1 41855U 16067H   18271.21416702  .00000512  00000-0  50201-4 0  9995
2 41855  97.9246   0.4799 0010600 174.8210 185.3123 14.96655927102483
ITF-2                   
1 41932U 98067KU  18270.95464875  .00059035  00000-0  24823-3 0  9999
2 41932  51.6284 168.3185 0003048 198.2989 161.7905 15.84913532 97017
WASEDA-SAT3             
1 41933U 98067KV  18270.91088637  .00563470  18064-3  51283-3 0  9999
2 41933  51.6244 151.9035 0006435 233.4831 126.5592 16.11879290 97224
AOBA-VELOX 3            
1 41935U 98067KX  18271.12114457  .00141836  19149-4  34268-3 0  9993
2 41935  51.6297 158.0490 0003955 200.9839 159.1008 15.96093923 97269
INS-1B                  
1 41954U 17008G   18270.74092846  .00001227  00000-0  54748-4 0  9991
2 41954  97.4362 333.8040 0009264   4.1021 356.0290 15.23263396 89615
BGUSAT                  
1 41999U 17008BD  18270.73391974  .00001921  00000-0  79869-4 0  9995
2 41999  97.4410 335.1765 0008679  22.0840 338.0770 15.24997799 89057
DIDO-2                  
1 42000U 17008BE  18270.73767344  .00000936  00000-0  42326-4 0  9990
2 42000  97.4378 334.2799 0009102  23.0314 337.1329 15.23392420 89015
PEASSS                  
1 42015U 17008BV  18271.18557199  .00001075  00000-0  46995-4 0  9992
2 42015  97.4377 335.3074 0007169  31.0008 329.1651 15.24240126 89608
AL-FARABI 1             
1 42016U 17008BW  18270.75459143  .00001432  00000-0  60786-4 0  9996
2 42016  97.4387 335.1574 0007063  32.7161 327.4512 15.24711129 89674
NAYIF-1 (EO-88)         
1 42017U 17008BX  18270.74717362  .00001416  00000-0  60110-4 0  9999
2 42017  97.4385 335.1579 0007066  32.8819 327.2857 15.24736762 89694
HAVELSAT                
1 42700U 98067LH  18270.99665734  .00038246  00000-0  22641-3 0  9991
2 42700  51.6297 186.7304 0001025 274.5587  85.5296 15.77688438 78210
CXBN-2                  
1 42704U 98067LM  18271.04794224  .00043530  00000-0  26252-3 0  9993
2 42704  51.6323 187.8602 0002439 161.2800 198.8290 15.77206802 78120
ICECUBE                 
1 42705U 98067LN  18271.19907448  .00979503  61070-3  79474-3 0  9993
2 42705  51.6455 167.0771 0007018 255.7977 104.2259 16.13615922 78478
PHOENIX                 
1 42706U 98067LP  18270.95296410  .00026355  00000-0  18789-3 0  9990
2 42706  51.6353 190.9993 0001771 146.9996 213.1113 15.73621432 78061
X-CUBESAT               
1 42707U 98067LQ  18271.17544516  .00055947  00000-0  30953-3 0  9995
2 42707  51.6311 184.8291 0002173 160.9036 199.2047 15.79029933 78151
QBEE50-LTU-OC           
1 42708U 98067LR  18271.00588138  .00041861  00000-0  25135-3 0  9992
2 42708  51.6303 187.5529 0001574 137.2263 222.8860 15.77325680 78062
ALTAIR PATHFINDER       
1 42711U 98067LS  18271.08079552  .00016230  00000-0  15306-3 0  9990
2 42711  51.6354 201.6599 0003214 186.1643 173.9314 15.67217476 77594
SHARC                   
1 42712U 98067LT  18271.09506782  .00030208  00000-0  25827-3 0  9992
2 42712  51.6360 202.5733 0002101 161.7687 198.3386 15.69198357 77827
ZA-AEROSAT              
1 42713U 98067LU  18271.01072193  .00028023  00000-0  21245-3 0  9991
2 42713  51.6335 194.3759 0002351 160.5876 199.5212 15.72132885 77683
CSUNSAT 1               
1 42715U 98067LW  18271.03847886  .00028386  00000-0  20530-3 0  9992
2 42715  51.6332 193.0795 0003422 174.6759 185.4276 15.73235683 77702
SPACECUBE               
1 42717U 98067LY  18271.16831716  .00045619  00000-0  27433-3 0  9990
2 42717  51.6263 187.0788 0000546 221.8181 138.2777 15.77252474 77163
HOOPOE                  
1 42718U 98067LZ  18271.01519004  .00067919  00000-0  31340-3 0  9997
2 42718  51.6273 182.2549 0001739 174.2311 185.8712 15.82899821 77210
NJUST-1                 
1 42722U 98067MB  18271.07828698  .00023729  00000-0  19082-3 0  9990
2 42722  51.6344 196.3665 0003165 248.8556 111.2103 15.70825603 76730
UNSW-ECO                
1 42723U 98067MC  18271.18481224  .00094438  00000-0  38747-3 0  9997
2 42723  51.6369 180.4932 0002223 202.8652 157.2253 15.85244679 76932
LILACSAT-1              
1 42725U 98067ME  18271.16846920  .00039561  00000-0  26374-3 0  9994
2 42725  51.6342 190.9365 0002088 233.7465 126.3342 15.74962017 76718
NSIGHT-1                
1 42726U 98067MF  18271.04061141  .00011728  00000-0  13047-3 0  9994
2 42726  51.6386 208.2408 0003804 254.2084 105.8491 15.63358265 76483
SNUSAT-1                
1 42727U 98067MG  18270.92817743  .00034723  00000-0  23296-3 0  9995
2 42727  51.6332 192.2547 0004253 203.7279 156.3525 15.74873018 76642
I-INSPIRE II            
1 42731U 98067ML  18271.00130988  .00099715  00000-0  38827-3 0  9997
2 42731  51.6327 179.8958 0004575 179.0302 181.0712 15.86294287 76705
POLYITAN-2-SAU          
1 42732U 98067MM  18271.00736498  .00047392  00000-0  26691-3 0  9996
2 42732  51.6322 186.7687 0004456 187.0279 173.0660 15.78695673 76615
SNUSAT-1B               
1 42733U 98067MN  18271.03040258  .00037464  00000-0  23822-3 0  9994
2 42733  51.6317 189.9643 0004208 193.1962 166.8928 15.76067975 76577
EXALTA-1                
1 42734U 98067MP  18271.09094849  .00111172  00000-0  38252-3 0  9998
2 42734  51.6238 178.1070 0003862 200.0800 160.0054 15.88764202 76686
BEEAGLESAT              
1 42736U 98067MR  18271.01733671  .00032688  00000-0  23081-3 0  9993
2 42736  51.6330 192.8934 0003125 239.6517 120.4173 15.73720298 76591
UCLSAT                  
1 42765U 17036A   18270.70783028  .00001151  00000-0  53236-4 0  9995
2 42765  97.3904 328.8587 0013425  79.3579 280.9169 15.22088254 70306
LITUANICASAT-2          
1 42768U 17036D   18271.18714992  .00001796  00000-0  82025-4 0  9998
2 42768  97.3921 328.8919 0017123  68.5891 291.7169 15.21757126 70224
AALTO-1                 
1 42775U 17036L   18271.13498663  .00000733  00000-0  36157-4 0  9990
2 42775  97.3895 328.5807 0015706  67.2231 293.0662 15.20909035 70145
URSA MAIOR              
1 42776U 17036M   18270.72100071  .00000834  00000-0  40630-4 0  9991
2 42776  97.3902 328.2481 0015563  68.7560 291.5337 15.21002891 70082
COMPASS 2               
1 42777U 17036N   18271.17351374  .00001539  00000-0  70195-4 0  9998
2 42777  97.3927 329.2600 0014416  70.3297 289.9493 15.22046432 70170
DIAMOND RED             
1 42783U 17036U   18270.93161037  .00000924  00000-0  43861-4 0  9990
2 42783  97.3905 328.8728 0014045  78.6584 281.6229 15.21660453 70133
PEGASUS                 
1 42784U 17036V   18270.88991402  .00001066  00000-0  49797-4 0  9994
2 42784  97.3907 328.9374 0013945  78.7870 281.4932 15.21887713 70130
DIAMOND GREEN           
1 42785U 17036W   18270.93036267  .00000926  00000-0  43930-4 0  9997
2 42785  97.3906 328.8880 0013936  79.2031 281.0773 15.21660794 70201
DIAMOND BLUE            
1 42786U 17036X   18270.92951929  .00000923  00000-0  43798-4 0  9997
2 42786  97.3906 328.8868 0013776  79.4869 280.7918 15.21662228 70202
NUDTSAT                 
1 42787U 17036Y   18270.89759192  .00001579  00000-0  70906-4 0  9991
2 42787  97.3916 329.2535 0013438  78.3833 281.8911 15.22563920 69993
SUCHAI                  
1 42788U 17036Z   18270.89355005  .00001274  00000-0  58385-4 0  9996
2 42788  97.3908 329.0857 0013541  78.6124 281.6633 15.22194792 70214
SKCUBE                  
1 42789U 17036AA  18270.69883224  .00001225  00000-0  56371-4 0  9993
2 42789  97.3907 328.8789 0013392  79.1950 281.0793 15.22139886 70104
VZLUSAT-1               
1 42790U 17036AB  18270.75427429  .00001645  00000-0  73729-4 0  9995
2 42790  97.3913 329.1190 0013007  79.1918 281.0782 15.22578432 70124
ROBUSTA-1B              
1 42792U 17036AD  18270.65750802  .00001308  00000-0  59712-4 0  9992
2 42792  97.3906 328.9220 0012975  80.2407 280.0294 15.22295470 70112
CICERO 6                
1 42793U 17036AE  18270.73046531  .00001031  00000-0  48019-4 0  9990
2 42793  97.3896 328.9494 0012148  81.0757 279.1854 15.22072543 70196
D-SAT                   
1 42794U 17036AF  18271.13223753  .00000098  00000-0  14289-4 0  9993
2 42794  97.5805 321.8393 0125538 299.9878  58.8929 14.90933144 69067
TOKI                    
1 42820U 98067MU  18270.89651241  .00029553  00000-0  21918-3 0  9998
2 42820  51.6331 196.6038 0003053 158.9870 201.1255 15.72621151 70014
MAZAALAI (NUMSAT-1)     
1 42822U 98067MW  18271.14303609  .00029987  00000-0  22622-3 0  9995
2 42822  51.6333 196.0116 0002836 163.0108 197.0986 15.72209968 70009
BRAC ONNESHA            
1 42823U 98067MX  18271.06643484  .00029370  00000-0  21985-3 0  9992
2 42823  51.6344 196.2732 0003939 194.7123 165.3762 15.72402263 69990
NIGERIAEDUSAT-1         
1 42824U 98067MY  18271.04387793  .00028151  00000-0  21394-3 0  9999
2 42824  51.6348 196.8963 0003856 194.7186 165.3700 15.72067691 69976
CORVUS BC2              
1 42846U 17042X   18270.76090278  .00000063  00000-0  11561-4 0  9992
2 42846  97.5859 169.8735 0008764 206.9794 153.0970 14.91860808 65663
CORVUS BC1              
1 42847U 17042Y   18271.20125300  .00000335  00000-0  38424-4 0  9997
2 42847  97.5860 170.3623 0008464 204.6291 155.4525 14.91959945 65723
SILU-1 (SILKROAD 1)     
1 42903U 17021F   18270.89076458  .00037018  00000-0  22206-3 0  9998
2 42903  42.7761  63.8917 0015332 309.6699 181.1633 15.76920540 66113
